CCSDS_OMM_VERS = 2.0
CREATION_DATE  = 
ORIGINATOR     = 

OBJECT_NAME    = STARLINK-34460
OBJECT_ID      = 2025-236P
CENTER_NAME    = EARTH
REF_FRAME      = TEME
TIME_SYSTEM    = UTC
MEAN_ELEMENT_THEORY = SGP/SGP4

EPOCH          = 2025-11-03T22:00:03.000096
MEAN_MOTION    = 15.74156476
ECCENTRICITY   = .00010051
INCLINATION    = 53.1582
RA_OF_ASC_NODE = 332.8177
ARG_OF_PERICENTER = 107.3044
MEAN_ANOMALY   = 194.3217

EPHEMERIS_TYPE = 0
CLASSIFICATION_TYPE = U
NORAD_CAT_ID   = 66099
ELEMENT_SET_NO = 999
REV_AT_EPOCH   = 363
BSTAR          = .34691205E-3
MEAN_MOTION_DOT = .50409E-3
MEAN_MOTION_DDOT = 0

CCSDS_OMM_VERS = 2.0
CREATION_DATE  = 
ORIGINATOR     = 

OBJECT_NAME    = STARLINK-35609
OBJECT_ID      = 2025-236Q
CENTER_NAME    = EARTH
REF_FRAME      = TEME
TIME_SYSTEM    = UTC
MEAN_ELEMENT_THEORY = SGP/SGP4

EPOCH          = 2025-11-03T22:00:03.000096
MEAN_MOTION    = 15.74157212
ECCENTRICITY   = .00009884
INCLINATION    = 53.1581
RA_OF_ASC_NODE = 332.8052
ARG_OF_PERICENTER = 102.8913
MEAN_ANOMALY   = 204.4783

EPHEMERIS_TYPE = 0
CLASSIFICATION_TYPE = U
NORAD_CAT_ID   = 66100
ELEMENT_SET_NO = 999
REV_AT_EPOCH   = 357
BSTAR          = .21368971E-3
MEAN_MOTION_DOT = .30737E-3
MEAN_MOTION_DDOT = 0

CCSDS_OMM_VERS = 2.0
CREATION_DATE  = 
ORIGINATOR     = 

OBJECT_NAME    = STARLINK-35595
OBJECT_ID      = 2025-236R
CENTER_NAME    = EARTH
REF_FRAME      = TEME
TIME_SYSTEM    = UTC
MEAN_ELEMENT_THEORY = SGP/SGP4

EPOCH          = 2025-11-03T22:00:03.000096
MEAN_MOTION    = 15.74165691
ECCENTRICITY   = .00008724
INCLINATION    = 53.1582
RA_OF_ASC_NODE = 332.8013
ARG_OF_PERICENTER = 101.2799
MEAN_ANOMALY   = 208.0007

EPHEMERIS_TYPE = 0
CLASSIFICATION_TYPE = U
NORAD_CAT_ID   = 66101
ELEMENT_SET_NO = 999
REV_AT_EPOCH   = 357
BSTAR          = .10241395E-3
MEAN_MOTION_DOT = .1438E-3
MEAN_MOTION_DDOT = 0

CCSDS_OMM_VERS = 2.0
CREATION_DATE  = 
ORIGINATOR     = 

OBJECT_NAME    = STARLINK-35599
OBJECT_ID      = 2025-236S
CENTER_NAME    = EARTH
REF_FRAME      = TEME
TIME_SYSTEM    = UTC
MEAN_ELEMENT_THEORY = SGP/SGP4

EPOCH          = 2025-11-03T22:00:03.000096
MEAN_MOTION    = 15.74161037
ECCENTRICITY   = .00009761
INCLINATION    = 53.1580
RA_OF_ASC_NODE = 332.7977
ARG_OF_PERICENTER = 109.4162
MEAN_ANOMALY   = 201.7795

EPHEMERIS_TYPE = 0
CLASSIFICATION_TYPE = U
NORAD_CAT_ID   = 66102
ELEMENT_SET_NO = 999
REV_AT_EPOCH   = 357
BSTAR          = .19456672E-3
MEAN_MOTION_DOT = .27925E-3
MEAN_MOTION_DDOT = 0

CCSDS_OMM_VERS = 2.0
CREATION_DATE  = 
ORIGINATOR     = 

OBJECT_NAME    = STARLINK-35622
OBJECT_ID      = 2025-236T
CENTER_NAME    = EARTH
REF_FRAME      = TEME
TIME_SYSTEM    = UTC
MEAN_ELEMENT_THEORY = SGP/SGP4

EPOCH          = 2025-11-03T22:00:03.000096
MEAN_MOTION    = 15.74171798
ECCENTRICITY   = .00008877
INCLINATION    = 53.1581
RA_OF_ASC_NODE = 332.7898
ARG_OF_PERICENTER = 107.5365
MEAN_ANOMALY   = 207.5006

EPHEMERIS_TYPE = 0
CLASSIFICATION_TYPE = U
NORAD_CAT_ID   = 66103
ELEMENT_SET_NO = 999
REV_AT_EPOCH   = 363
BSTAR          = .12826625E-3
MEAN_MOTION_DOT = .18182E-3
MEAN_MOTION_DDOT = 0

CCSDS_OMM_VERS = 2.0
CREATION_DATE  = 
ORIGINATOR     = 

OBJECT_NAME    = STARLINK-35452
OBJECT_ID      = 2025-236U
CENTER_NAME    = EARTH
REF_FRAME      = TEME
TIME_SYSTEM    = UTC
MEAN_ELEMENT_THEORY = SGP/SGP4

EPOCH          = 2025-11-03T22:00:03.000096
MEAN_MOTION    = 15.74184589
ECCENTRICITY   = .00012123
INCLINATION    = 53.1580
RA_OF_ASC_NODE = 332.7934
ARG_OF_PERICENTER = 93.6364
MEAN_ANOMALY   = 219.4830

EPHEMERIS_TYPE = 0
CLASSIFICATION_TYPE = U
NORAD_CAT_ID   = 66104
ELEMENT_SET_NO = 999
REV_AT_EPOCH   = 363
BSTAR          = -.10852678E-3
MEAN_MOTION_DOT = -.16489E-3
MEAN_MOTION_DDOT = 0

CCSDS_OMM_VERS = 2.0
CREATION_DATE  = 
ORIGINATOR     = 

OBJECT_NAME    = STARLINK-35561
OBJECT_ID      = 2025-236V
CENTER_NAME    = EARTH
REF_FRAME      = TEME
TIME_SYSTEM    = UTC
MEAN_ELEMENT_THEORY = SGP/SGP4

EPOCH          = 2025-11-03T22:00:03.000096
MEAN_MOTION    = 15.74191326
ECCENTRICITY   = .00011787
INCLINATION    = 53.1581
RA_OF_ASC_NODE = 332.7857
ARG_OF_PERICENTER = 101.2877
MEAN_ANOMALY   = 215.6629

EPHEMERIS_TYPE = 0
CLASSIFICATION_TYPE = U
NORAD_CAT_ID   = 66105
ELEMENT_SET_NO = 999
REV_AT_EPOCH   = 357
BSTAR          = -.1776466E-3
MEAN_MOTION_DOT = -.26567E-3
MEAN_MOTION_DDOT = 0

CCSDS_OMM_VERS = 2.0
CREATION_DATE  = 
ORIGINATOR     = 

OBJECT_NAME    = STARLINK-35584
OBJECT_ID      = 2025-236W
CENTER_NAME    = EARTH
REF_FRAME      = TEME
TIME_SYSTEM    = UTC
MEAN_ELEMENT_THEORY = SGP/SGP4

EPOCH          = 2025-11-03T22:00:03.000096
MEAN_MOTION    = 15.74169810
ECCENTRICITY   = .00011442
INCLINATION    = 53.1580
RA_OF_ASC_NODE = 332.7809
ARG_OF_PERICENTER = 99.4610
MEAN_ANOMALY   = 219.4024

EPHEMERIS_TYPE = 0
CLASSIFICATION_TYPE = U
NORAD_CAT_ID   = 66106
ELEMENT_SET_NO = 999
REV_AT_EPOCH   = 363
BSTAR          = .53669429E-4
MEAN_MOTION_DOT = .7231E-4
MEAN_MOTION_DDOT = 0

CCSDS_OMM_VERS = 2.0
CREATION_DATE  = 
ORIGINATOR     = 

OBJECT_NAME    = STARLINK-35593
OBJECT_ID      = 2025-236X
CENTER_NAME    = EARTH
REF_FRAME      = TEME
TIME_SYSTEM    = UTC
MEAN_ELEMENT_THEORY = SGP/SGP4

EPOCH          = 2025-11-03T22:00:03.000096
MEAN_MOTION    = 15.74171261
ECCENTRICITY   = .00012664
INCLINATION    = 53.1579
RA_OF_ASC_NODE = 332.7773
ARG_OF_PERICENTER = 99.7112
MEAN_ANOMALY   = 221.0693

EPHEMERIS_TYPE = 0
CLASSIFICATION_TYPE = U
NORAD_CAT_ID   = 66107
ELEMENT_SET_NO = 999
REV_AT_EPOCH   = 363
BSTAR          = .56902061E-4
MEAN_MOTION_DOT = .7705E-4
MEAN_MOTION_DDOT = 0

CCSDS_OMM_VERS = 2.0
CREATION_DATE  = 
ORIGINATOR     = 

OBJECT_NAME    = STARLINK-35590
OBJECT_ID      = 2025-236Y
CENTER_NAME    = EARTH
REF_FRAME      = TEME
TIME_SYSTEM    = UTC
MEAN_ELEMENT_THEORY = SGP/SGP4

EPOCH          = 2025-11-03T22:00:03.000096
MEAN_MOTION    = 15.74184031
ECCENTRICITY   = .00011255
INCLINATION    = 53.1580
RA_OF_ASC_NODE = 332.7693
ARG_OF_PERICENTER = 106.0995
MEAN_ANOMALY   = 218.5102

EPHEMERIS_TYPE = 0
CLASSIFICATION_TYPE = U
NORAD_CAT_ID   = 66108
ELEMENT_SET_NO = 999
REV_AT_EPOCH   = 357
BSTAR          = -.11164511E-3
MEAN_MOTION_DOT = -.16943E-3
MEAN_MOTION_DDOT = 0

CCSDS_OMM_VERS = 2.0
CREATION_DATE  = 
ORIGINATOR     = 

OBJECT_NAME    = STARLINK-35545
OBJECT_ID      = 2025-236Z
CENTER_NAME    = EARTH
REF_FRAME      = TEME
TIME_SYSTEM    = UTC
MEAN_ELEMENT_THEORY = SGP/SGP4

EPOCH          = 2025-11-03T22:00:03.000096
MEAN_MOTION    = 15.74180959
ECCENTRICITY   = .00013083
INCLINATION    = 53.1580
RA_OF_ASC_NODE = 332.7731
ARG_OF_PERICENTER = 86.6084
MEAN_ANOMALY   = 236.0906

EPHEMERIS_TYPE = 0
CLASSIFICATION_TYPE = U
NORAD_CAT_ID   = 66109
ELEMENT_SET_NO = 999
REV_AT_EPOCH   = 363
BSTAR          = -.16129156E-4
MEAN_MOTION_DOT = -.299E-4
MEAN_MOTION_DDOT = 0

CCSDS_OMM_VERS = 2.0
CREATION_DATE  = 
ORIGINATOR     = 

OBJECT_NAME    = STARLINK-35427
OBJECT_ID      = 2025-236AA
CENTER_NAME    = EARTH
REF_FRAME      = TEME
TIME_SYSTEM    = UTC
MEAN_ELEMENT_THEORY = SGP/SGP4

EPOCH          = 2025-11-03T22:00:03.000096
MEAN_MOTION    = 15.74201208
ECCENTRICITY   = .00010722
INCLINATION    = 53.1582
RA_OF_ASC_NODE = 332.7647
ARG_OF_PERICENTER = 100.8627
MEAN_ANOMALY   = 225.6618

EPHEMERIS_TYPE = 0
CLASSIFICATION_TYPE = U
NORAD_CAT_ID   = 66110
ELEMENT_SET_NO = 999
REV_AT_EPOCH   = 363
BSTAR          = -.26540076E-3
MEAN_MOTION_DOT = -.39337E-3
MEAN_MOTION_DDOT = 0

