STARLINK-34460          
1 66099U 25236P   25307.91670139  .00050409  00000+0  34691-3 0  9994
2 66099  53.1582 332.8177 0001005 107.3044 194.3217 15.74156476  3637
STARLINK-35609          
1 66100U 25236Q   25307.91670139  .00030737  00000+0  21369-3 0  9997
2 66100  53.1581 332.8052 0000988 102.8913 204.4783 15.74157212  3578
STARLINK-35595          
1 66101U 25236R   25307.91670139  .00014380  00000+0  10241-3 0  9991
2 66101  53.1582 332.8013 0000872 101.2799 208.0007 15.74165691  3573
STARLINK-35599          
1 66102U 25236S   25307.91670139  .00027925  00000+0  19457-3 0  9999
2 66102  53.1580 332.7977 0000976 109.4162 201.7795 15.74161037  3573
STARLINK-35622          
1 66103U 25236T   25307.91670139  .00018182  00000+0  12827-3 0  9999
2 66103  53.1581 332.7898 0000887 107.5365 207.5006 15.74171798  3633
STARLINK-35452          
1 66104U 25236U   25307.91670139 -.00016489  00000+0 -10853-3 0  9997
2 66104  53.1580 332.7934 0001212  93.6364 219.4830 15.74184589  3630
STARLINK-35561          
1 66105U 25236V   25307.91670139 -.00026567  00000+0 -17765-3 0  9995
2 66105  53.1581 332.7857 0001178 101.2877 215.6629 15.74191326  3576
STARLINK-35584          
1 66106U 25236W   25307.91670139  .00007231  00000+0  53669-4 0  9995
2 66106  53.1580 332.7809 0001144  99.4610 219.4024 15.74169810  3630
STARLINK-35593          
1 66107U 25236X   25307.91670139  .00007705  00000+0  56902-4 0  9995
2 66107  53.1579 332.7773 0001266  99.7112 221.0693 15.74171261  3638
STARLINK-35590          
1 66108U 25236Y   25307.91670139 -.00016943  00000+0 -11165-3 0  9993
2 66108  53.1580 332.7693 0001125 106.0995 218.5102 15.74184031  3575
STARLINK-35545          
1 66109U 25236Z   25307.91670139 -.00002990  00000+0 -16129-4 0  9997
2 66109  53.1580 332.7731 0001308  86.6084 236.0906 15.74180959  3633
STARLINK-35427          
1 66110U 25236AA  25307.91670139 -.00039337  00000+0 -26540-3 0  9991
2 66110  53.1582 332.7647 0001072 100.8627 225.6618 15.74201208  3638
